{
    "links": {
        "self": "http://www.neowsapp.com/rest/v1/neo/3836747?api_key=iIulBulltgU6a56xZRHN4H3l9WmuAYTsLGpBGhQ2"
    },
    "id": "3836747",
    "neo_reference_id": "3836747",
    "name": "(2018 XH1)",
    "designation": "2018 XH1",
    "nasa_jpl_url": "http://ssd.jpl.nasa.gov/sbdb.cgi?sstr=3836747",
    "absolute_magnitude_h": 25.8,
    "estimated_diameter": {
        "kilometers": {
            "estimated_diameter_min": 0.0183888672,
            "estimated_diameter_max": 0.0411187571
        },
        "meters": {
            "estimated_diameter_min": 18.388867207,
            "estimated_diameter_max": 41.1187571041
        },
        "miles": {
            "estimated_diameter_min": 0.0114263088,
            "estimated_diameter_max": 0.0255500032
        },
        "feet": {
            "estimated_diameter_min": 60.3309310875,
            "estimated_diameter_max": 134.9040630575
        }
    },
    "is_potentially_hazardous_asteroid": false,
    "close_approach_data": [
        {
            "close_approach_date": "1911-09-02",
            "close_approach_date_full": "1911-Sep-02 08:35",
            "epoch_date_close_approach": -1840807500000,
            "relative_velocity": {
                "kilometers_per_second": "11.9525233853",
                "kilometers_per_hour": "43029.0841869958",
                "miles_per_hour": "26736.5995605252"
            },
            "miss_distance": {
                "astronomical": "0.0771357229",
                "lunar": "30.0057962081",
                "kilometers": "11539339.846750223",
                "miles": "7170213.2935621574"
            },
            "orbiting_body": "Mars"
        },
        {
            "close_approach_date": "1911-11-06",
            "close_approach_date_full": "1911-Nov-06 09:12",
            "epoch_date_close_approach": -1835189280000,
            "relative_velocity": {
                "kilometers_per_second": "18.8199054935",
                "kilometers_per_hour": "67751.6597765208",
                "miles_per_hour": "42098.2465983609"
            },
            "miss_distance": {
                "astronomical": "0.4111475355",
                "lunar": "159.9363913095",
                "kilometers": "61506795.566549385",
                "miles": "38218550.547316113"
            },
            "orbiting_body": "Earth"
        },
        {
            "close_approach_date": "1949-12-25",
            "close_approach_date_full": "1949-Dec-25 22:07",
            "epoch_date_close_approach": -631677180000,
            "relative_velocity": {
                "kilometers_per_second": "6.2182056224",
                "kilometers_per_hour": "22385.5402405111",
                "miles_per_hour": "13909.5041566665"
            },
            "miss_distance": {
                "astronomical": "0.039703866",
                "lunar": "15.444803874",
                "kilometers": "5939613.78436542",
                "miles": "3690704.865345996"
            },
            "orbiting_body": "Earth"
        },
        {
            "close_approach_date": "1950-05-09",
            "close_approach_date_full": "1950-May-09 12:37",
            "epoch_date_close_approach": -620047380000,
            "relative_velocity": {
                "kilometers_per_second": "11.4558512598",
                "kilometers_per_hour": "41241.0645352134",
                "miles_per_hour": "25625.5936830052"
            },
            "miss_distance": {
                "astronomical": "0.0987692712",
                "lunar": "38.4212464968",
                "kilometers": "14775672.592972344",
                "miles": "9181177.2124285872"
            },
            "orbiting_body": "Mars"
        },
        {
            "close_approach_date": "2018-12-15",
            "close_approach_date_full": "2018-Dec-15 19:54",
            "epoch_date_close_approach": 1544903640000,
            "relative_velocity": {
                "kilometers_per_second": "6.7348177382",
                "kilometers_per_hour": "24245.3438574267",
                "miles_per_hour": "15065.1137985216"
            },
            "miss_distance": {
                "astronomical": "0.0297868175",
                "lunar": "11.5870720075",
                "kilometers": "4456044.452078725",
                "miles": "2768857.628887405"
            },
            "orbiting_body": "Earth"
        }
    ],
    "orbital_data": {
        "orbit_id": "2",
        "orbit_determination_date": "2018-12-30 07:11:21",
        "first_observation_date": "2018-12-09",
        "last_observation_date": "2018-12-11",
        "data_arc_in_days": 2,
        "observations_used": 42,
        "orbit_uncertainty": "8",
        "minimum_orbit_intersection": ".0297854",
        "jupiter_tisserand_invariant": "3.963",
        "epoch_osculation": "2458462.5",
        "eccentricity": ".4459937028384398",
        "semi_major_axis": "1.782643802115241",
        "inclination": "4.789207714366007",
        "ascending_node_longitude": "67.77762166420078",
        "orbital_period": "869.3512585962626",
        "perihelion_distance": ".9875958919678697",
        "perihelion_argument": "34.29049021069646",
        "aphelion_distance": "2.577691712262612",
        "perihelion_time": "2458483.780140309738",
        "mean_anomaly": "351.1878536601239",
        "mean_motion": ".4141018908528301",
        "equinox": "J2000",
        "orbit_class": {
            "orbit_class_type": "APO",
            "orbit_class_description": "Near-Earth asteroid orbits which cross the Earth’s orbit similar to that of 1862 Apollo",
            "orbit_class_range": "a (semi-major axis) > 1.0 AU; q (perihelion) < 1.017 AU"
        }
    },
    "is_sentry_object": false
}